60717 2000 GZ66,e,6.7584,18.5446,225.9141,2.197728,0.3025124,0.10553053,148.5449,08/27.0/2011,2000,H16.8,0.15
63252 2001 BL41,e,12.4688,281.1425,132.1206,9.719761,0.0325253,0.29692803,161.2582,08/27.0/2011,2000,H11.7,0.15
65407 2002 RP120,e,119.2998,39.0024,357.8574,54.21881,0.0024688,0.95425321,8.0222,08/27.0/2011,2000,H12.3,0.15
65489 2003 FX128,e,22.3199,172.0474,319.4243,99.80405,0.0009885,0.82201141,7.9837,08/27.0/2011,2000,H 6.3,0.15
65674 1988 SM,e,10.9477,0.9608,313.1493,1.664823,0.4588304,0.34393394,262.0691,08/27.0/2011,2000,H18.3,0.15
65717 1993 BX3,e,2.7905,175.5841,289.9518,1.394674,0.5984050,0.28055884,113.1519,08/27.0/2011,2000,H20.9,0.15
65909 1998 FH12,e,3.5591,108.6626,284.4287,1.091249,0.8646056,0.53983184,6.1988,08/27.0/2011,2000,H19.2,0.15
65999 1998 ND,e,22.4419,276.6081,79.5840,2.282614,0.2857955,0.33674150,272.6105,08/27.0/2011,2000,H15.3,0.15
66146 1998 TU3,e,5.4133,102.2473,84.6531,0.787145,1.4113090,0.48386824,297.6621,08/27.0/2011,2000,H14.6,0.15
66253 1999 GT3,e,19.5143,157.6594,260.8158,1.334018,0.6396785,0.83780412,52.8859,08/27.0/2011,2000,H18.1,0.15
66452 1999 OF4,e,2.6563,134.3790,91.0235,45.11079,0.0032530,0.06181480,98.0271,08/27.0/2011,2000,H 6.9,0.15
67381 2000 OL8,e,10.6643,295.0413,266.7011,1.320496,0.6495291,0.54305819,160.2770,08/27.0/2011,2000,H19.9,0.15
68347 2001 KB67,e,17.1375,245.9437,243.8460,0.962841,1.0432114,0.37972546,21.9547,08/27.0/2011,2000,H19.9,0.15
68748 2002 EE57,e,13.5017,171.5793,97.9236,2.598805,0.2352576,0.15244395,2.1329,08/27.0/2011,2000,H15.9,0.15
69230 1937 UB,e,6.0685,34.2651,92.6926,1.655094,0.4628818,0.62397019,217.5254,08/27.0/2011,2000,H17.5,0.15
69986 1998 WW24,e,13.9093,233.9321,146.9985,39.67469,0.0039440,0.22915091,35.8780,08/27.0/2011,2000,H 7.9,0.15
69987 1998 WA25,e,1.0475,136.2231,225.1431,42.73095,0.0035285,0.02484222,62.5544,08/27.0/2011,2000,H 7.2,0.15
69988 1998 WA31,e,9.4405,20.6522,310.5774,55.54290,0.0023810,0.42954922,38.5830,08/27.0/2011,2000,H 7.5,0.15
69990 1998 WU31,e,6.5660,237.1248,142.5028,39.46931,0.0039748,0.19072624,38.8170,08/27.0/2011,2000,H 8.3,0.15
70679 1999 UV3,e,4.7839,222.4941,156.5206,2.631127,0.2309359,0.21434318,277.0444,08/27.0/2011,2000,H16.3,0.15
73147 2002 GS98,e,10.7125,201.2664,68.7031,2.627340,0.2314353,0.14817361,6.8917,08/27.0/2011,2000,H15.7,0.15
76824 2000 SA89,e,8.2344,321.8696,73.3513,5.165224,0.0839596,0.11683551,303.9549,08/27.0/2011,2000,H12.6,0.15
78799 2002 XW93,e,14.3283,46.7383,248.7194,37.64521,0.0042672,0.24680332,131.7473,08/27.0/2011,2000,H 5.5,0.15
78997 2121 P-L,e,14.5264,6.5554,63.7838,2.618940,0.2325497,0.18555926,324.0948,08/27.0/2011,2000,H15.7,0.15
79969 1999 CP133,e,3.1800,334.2623,155.4008,34.80069,0.0048009,0.08239033,45.5362,08/27.0/2011,2000,H 7.5,0.15
79983 1999 DF9,e,9.8288,334.8707,176.2574,46.26907,0.0031316,0.14083054,14.6480,08/27.0/2011,2000,H 6.1,0.15
82157 2001 FM185,e,5.3752,150.7984,117.0829,38.46610,0.0041313,0.05801771,275.6463,08/27.0/2011,2000,H 6.9,0.15
82158 2001 FP185,e,30.8379,179.3922,6.7586,212.3078,0.0003186,0.83871652,0.8998,08/27.0/2011,2000,H 6.0,0.15
84709 2002 VW120,e,14.8171,279.4243,75.4379,5.249440,0.0819473,0.06825619,320.6676,08/27.0/2011,2000,H11.8,0.15
84719 2002 VR128,e,13.9851,23.0286,289.5594,39.66604,0.0039453,0.26524755,65.2359,08/27.0/2011,2000,H 5.6,0.15
85182 1991 AQ,e,3.1839,341.3735,241.1699,2.215747,0.2988297,0.78007351,70.8672,08/27.0/2011,2000,H17.1,0.15
85585 1998 FG2,e,4.0837,2.3909,95.3140,1.297459,0.6669042,0.35612831,76.6351,08/27.0/2011,2000,H21.6,0.15
85627 1998 HP151,e,1.5166,55.9750,253.3085,43.88197,0.0033906,0.08738102,306.7851,08/27.0/2011,2000,H 7.4,0.15
85633 1998 KR65,e,1.1893,101.9194,325.4781,43.63782,0.0034191,0.03257020,255.5084,08/27.0/2011,2000,H 6.7,0.15
85770 1998 UP1,e,33.1824,18.3824,234.3113,0.998410,0.9879630,0.34493679,52.7584,08/27.0/2011,2000,H20.5,0.15
85938 1999 DJ4,e,9.1545,19.9727,197.5715,1.852380,0.3909389,0.48425513,326.7669,08/27.0/2011,2000,H18.6,0.15
85953 1999 FK21,e,12.6018,180.5316,172.3371,0.738747,1.5522470,0.70314682,107.2924,08/27.0/2011,2000,H18.0,0.15
85990 1999 JV6,e,5.3193,124.5621,235.3565,1.008124,0.9737174,0.31143151,317.3327,08/27.0/2011,2000,H19.9,0.15
86047 1999 OY3,e,24.2252,301.8261,306.0336,43.95150,0.0033825,0.16930137,55.1208,08/27.0/2011,2000,H 6.8,0.15
86177 1999 RY215,e,22.1582,326.5983,50.8467,45.56027,0.0032050,0.24216274,341.7662,08/27.0/2011,2000,H 7.1,0.15
86450 2000 CK33,e,18.1055,124.9032,215.5760,0.968103,1.0347168,0.41483110,149.2012,08/27.0/2011,2000,H18.2,0.15
86667 2000 FO10,e,14.2863,208.3824,172.4215,0.859264,1.2374119,0.59474955,275.6588,08/27.0/2011,2000,H17.3,0.15
86926 2000 HN60,e,12.8380,218.6447,115.1812,2.442964,0.2581241,0.24621061,258.3516,08/27.0/2011,2000,H15.5,0.15
87024 2000 JS66,e,14.4340,230.5859,84.8856,1.196384,0.7531787,0.18971560,142.9313,08/27.0/2011,2000,H18.7,0.15
87025 2000 JT66,e,25.3160,120.5348,359.5567,1.226663,0.7254644,0.48356484,163.9489,08/27.0/2011,2000,H17.9,0.15
87269 2000 OO67,e,20.0606,142.2995,212.5987,668.6262,0.0000570,0.96891240,0.1315,08/27.0/2011,2000,H 9.2,0.15
87311 2000 QJ1,e,7.6912,191.4907,343.4135,1.590263,0.4914740,0.51227966,293.4927,08/27.0/2011,2000,H16.3,0.15
87555 2000 QB243,e,6.7752,330.1337,284.8933,35.05454,0.0047488,0.56285100,33.5128,08/27.0/2011,2000,H 8.3,0.15
87684 2000 SY2,e,19.2319,162.0885,47.7256,0.858695,1.2386415,0.64281416,357.0035,08/27.0/2011,2000,H16.0,0.15
88213 2001 AF2,e,17.8122,114.3024,194.9585,0.953961,1.0578107,0.59519547,276.8356,08/27.0/2011,2000,H19.1,0.15
88267 2001 KE76,e,0.4963,113.2286,28.9295,42.87107,0.0035112,0.02402802,106.3772,08/27.0/2011,2000,H 7.2,0.15
88268 2001 KK76,e,1.8882,86.9621,240.1219,42.41011,0.0035686,0.01756199,296.1085,08/27.0/2011,2000,H 6.3,0.15
88269 2001 KF77,e,4.3620,14.6981,266.5934,25.93950,0.0074604,0.23778317,344.0750,08/27.0/2011,2000,H 9.5,0.15
88611 2001 QT297,e,2.5801,304.7386,238.5335,44.19760,0.0033543,0.02313559,151.2953,08/27.0/2011,2000,H 5.8,0.15
88710 2001 SL9,e,21.9010,202.8826,329.3051,1.061428,0.9012974,0.27003233,236.7981,08/27.0/2011,2000,H17.6,0.15
89136 2001 US16,e,1.9047,176.0182,67.0162,1.355688,0.6244019,0.25287689,216.3053,08/27.0/2011,2000,H20.2,0.15
90147 2002 YK14,e,27.9909,282.7600,105.0050,1.474106,0.5506950,0.33168602,317.8070,08/27.0/2011,2000,H18.5,0.15
90198 2003 AK59,e,17.0467,123.9988,84.8419,2.668798,0.2260635,0.24355222,303.3928,08/27.0/2011,2000,H15.2,0.15
90416 2003 YK118,e,7.8488,327.0550,232.9029,1.694298,0.4469093,0.49226426,133.3722,08/27.0/2011,2000,H18.4,0.15
90568 2004 GV9,e,22.0150,250.5555,291.0240,41.80524,0.0036463,0.07397111,31.2704,08/27.0/2011,2000,H 4.0,0.15
90788 1994 PQ20,e,7.9399,338.1119,339.8683,2.241023,0.2937884,0.16511302,38.9815,08/27.0/2011,2000,H17.1,0.15
91133 1998 HK151,e,5.9502,50.2911,181.0036,39.27855,0.0040038,0.22627403,18.6272,08/27.0/2011,2000,H 7.6,0.15
91205 1998 US43,e,10.5851,223.7896,142.4086,39.48192,0.0039729,0.13594681,51.5047,08/27.0/2011,2000,H 8.0,0.15
91554 1999 RZ215,e,25.4796,341.6413,335.9395,103.3616,0.0009379,0.70014483,4.3705,08/27.0/2011,2000,H 7.9,0.15
92278 2000 CB110,e,7.0998,319.3990,326.2004,2.194805,0.3031169,0.24275327,76.2014,08/27.0/2011,2000,H17.4,0.15
92362 2000 HY29,e,8.2254,19.0913,181.2830,2.195925,0.3028851,0.09114342,190.8292,08/27.0/2011,2000,H15.7,0.15
92392 2000 JL9,e,6.6455,229.6289,77.2922,2.261353,0.2898355,0.17448718,52.3586,08/27.0/2011,2000,H16.1,0.15
92755 2000 QL115,e,4.4995,238.3398,117.6650,2.401055,0.2649115,0.23854387,332.6465,08/27.0/2011,2000,H16.4,0.15
92953 2000 RL43,e,11.4581,330.2174,41.6870,2.646457,0.2289321,0.30735866,195.8133,08/27.0/2011,2000,H16.4,0.15
93419 2000 SS305,e,12.1716,216.5297,124.9987,2.616830,0.2328310,0.18785434,234.9687,08/27.0/2011,2000,H15.2,0.15
94335 2001 OV91,e,21.7902,177.1548,44.7827,1.946450,0.3629436,0.12416217,340.6262,08/27.0/2011,2000,H16.4,0.15
94363 2001 RK47,e,18.8508,4.4296,194.4747,1.993777,0.3500977,0.04743866,341.1254,08/27.0/2011,2000,H16.4,0.15
94606 2001 VT104,e,6.9407,42.1630,341.3997,2.204444,0.3011311,0.08949667,23.6769,08/27.0/2011,2000,H16.5,0.15
95625 2002 GX32,e,13.9600,28.2382,185.7925,52.85303,0.0025651,0.37351326,13.7431,08/27.0/2011,2000,H 7.4,0.15
95782 2003 FS3,e,13.0106,155.8970,101.9930,2.658952,0.2273204,0.23891621,278.6531,08/27.0/2011,2000,H16.1,0.15
95992 2004 NF8,e,14.4249,140.9679,233.1008,2.580026,0.2378307,0.19743373,213.0055,08/27.0/2011,2000,H16.6,0.15
98943 2001 CC21,e,4.8088,75.5943,179.2945,1.032363,0.9396274,0.21927264,294.8683,08/27.0/2011,2000,H18.5,0.15
99942 2004 MN4,e,3.3320,204.4304,126.4245,0.922300,1.1127448,0.19107619,287.5823,08/27.0/2011,2000,H19.2,0.15
100004 1983 VA,e,16.2839,77.3284,12.0277,2.596197,0.2356122,0.69941975,205.1046,08/27.0/2011,2000,H16.4,0.15
100085 1992 UY4,e,2.8062,308.4713,38.2783,2.638540,0.2299634,0.62558677,142.7944,08/27.0/2011,2000,H17.8,0.15
100690 1997 YY6,e,8.2286,72.6339,335.1903,2.590522,0.2363868,0.31700614,116.0663,08/27.0/2011,2000,H17.0,0.15
100747 1998 EO4,e,5.0438,138.9691,113.1389,2.150164,0.3126055,0.13265738,23.9664,08/27.0/2011,2000,H16.9,0.15
101429 1998 VF31,e,31.2972,221.3326,310.4708,1.524212,0.5237645,0.10043280,183.4390,08/27.0/2011,2000,H17.2,0.15
101955 1999 RQ36,e,6.0353,2.0556,66.2380,1.126284,0.8245786,0.20384812,297.9318,08/27.0/2011,2000,H20.9,0.15
102285 1999 TP63,e,4.8063,200.2912,172.7138,2.461763,0.2551730,0.19899256,43.3806,08/27.0/2011,2000,H16.2,0.15
103178 1999 XL235,e,6.1115,68.8437,276.6962,2.165038,0.3093897,0.20714046,308.5869,08/27.0/2011,2000,H17.3,0.15
105417 2000 QL163,e,6.1379,236.4651,72.5663,2.358819,0.2720584,0.22298563,30.9118,08/27.0/2011,2000,H16.8,0.15
105626 2000 SW4,e,21.7888,28.1187,330.1247,1.993281,0.3502284,0.07509704,315.5057,08/27.0/2011,2000,H16.6,0.15
105948 2000 SZ240,e,20.6692,216.5024,148.8403,1.964720,0.3578928,0.09029950,348.4317,08/27.0/2011,2000,H16.7,0.15
109266 2001 QL110,e,23.3105,319.3709,122.1707,5.196593,0.0832005,0.16359717,243.4045,08/27.0/2011,2000,H13.4,0.15
